{"fetched_at":"2026-03-29T16:36:15Z","count":15609,"tles":[{"name":"STARLINK-33865","line1":"1 64247U 25119Q   26087.72307030  .00039895  00000+0  14504-2 0  9995","line2":"2 64247  42.9997 199.2617 0001544 277.8080  82.2596 15.27602234 47056","category":"Starlink"}]}