{
  "norad_id": 64247,
  "name": "STARLINK-33865",
  "history": [
    {
      "epoch": "2026-03-28T17:21:13.273920Z",
      "apogee_km": 484.04187710645056,
      "perigee_km": 481.92316339859644,
      "latitude_deg": -1.934255927109386e-05,
      "longitude_deg": 112.8169449058483,
      "height_km": 482.61539729675667,
      "semi_major_axis_km": 6861.119520252523,
      "eccentricity": 0.0001544,
      "inclination_deg": 42.9997,
      "raan_deg": 199.2617,
      "arg_perigee_deg": 277.808,
      "mean_anomaly_deg": 82.2596,
      "mean_motion_rev_day": 15.27602234
    }
  ]
}